COSMOS 2539             
1 44457U 19048A   26114.71386079  .00000066  00000+0  00000+0 0  9991
2 44457   0.0325  69.6278 0000418  88.2800 323.8128  1.00271244 24692
EDRS-C                  
1 44475U 19049A   26116.51711252 -.00000274  00000+0  00000+0 0  9999
2 44475   0.0250 141.1372 0001281 235.2943 166.7494  1.00272872 24699
INTELSAT 39 (IS-39)     
1 44476U 19049B   26115.72199331  .00000000  00000+0  00000+0 0  9996
2 44476   0.0173 238.7985 0000479   6.5465 290.2524  1.00269540 24609
AMOS-17                 
1 44479U 19050A   26116.32058611  .00000096  00000+0  00000+0 0  9998
2 44479   0.0146 321.4256 0001370  73.4854 311.8308  1.00269017 24664
AEHF-5 (USA 292)        
1 44481U 19051A   26116.51252659 -.00000273  00000+0  00000+0 0  9999
2 44481   1.5045 332.3888 0069490   2.7613 156.9573  1.00272844 24741
EUTELSAT 5 WEST B       
1 44624U 19067A   26116.35041918 -.00000055  00000+0  00000+0 0  9999
2 44624   0.0690   9.7145 0003151  25.3558 300.4277  1.00271366 23915
TJS-4                   
1 44637U 19070A   26116.51053324 -.00000181  00000+0  00000+0 0  9999
2 44637   0.0768  76.6966 0002916 353.5200  51.6045  1.00269820 24020
BEIDOU-3 IGSO-3         
1 44709U 19073A   26115.86310865 -.00000195  00000+0  00000+0 0  9990
2 44709  54.8923 281.4605 0042116 188.7957 171.0495  1.00252806 23930
TIBA-1                  
1 44800U 19080A   26116.28715426  .00000143  00000+0  00000+0 0  9991
2 44800   0.0583 344.5614 0001767  55.4223 313.1788  1.00272688 23531
INMARSAT GX5            
1 44801U 19080B   26116.27544766  .00000062  00000+0  00000+0 0  9998
2 44801   0.0470  20.5677 0001699  11.2674 292.6188  1.00269427  6264
JCSAT-18 (KACIFIC 1)    
1 44868U 19091A   26116.45245850 -.00000213  00000+0  00000+0 0  9994
2 44868   0.0204 347.3599 0000127 289.6490 250.3443  1.00270873 23493
ELEKTRO-L 3             
1 44903U 19095A   26116.50905991 -.00000108  00000+0  00000+0 0  9996
2 44903   0.1252  75.7360 0001080 295.0500 102.9252  1.00271264 23199
SHIJIAN-20 (SJ-20)      
1 44910U 19097A   26116.50281987  .00000127  00000+0  00000+0 0  9998
2 44910   4.7895  75.6805 0011524  51.5438 313.0471  1.00274333 23189
TJS-5                   
1 44978U 20002A   26116.51529993 -.00000354  00000+0  00000+0 0  9996
2 44978   0.1402 270.8865 0006161 123.2109 113.4399  1.00271513 23183
GSAT-30                 
1 45026U 20005A   26116.51044656  .00000000  00000+0  00000+0 0  9999
2 45026   0.0192 124.3236 0002778 305.3557  51.6063  1.00268441 22993
EUTELSAT KONNECT        
1 45027U 20005B   26116.35284586  .00000037  00000+0  00000+0 0  9990
2 45027   0.0688  89.4434 0001998 204.5070  54.6374  1.00270143 23810
JCSAT-17                
1 45245U 20013A   26115.95055966 -.00000335  00000+0  00000+0 0  9996
2 45245   5.3943 356.3720 0004025  24.9691 310.8132  1.00272021 22708
